0 SL-6 R/B(2)
1 19448U 88076D   13282.51506164  .00248107  19790-5  84059-3 0  3052
2 19448 063.1953 323.7186 2252822 198.5138 334.4636 11.13902453342741
0 SL-6 R/B(2)
1 19448U 88076D   13282.84844399  .00242529  19814-5  82222-3 0  3063
2 19448 063.1955 323.1025 2252079 198.5267 231.4308 11.14056092342782
0 SL-6 R/B(2)
1 19448U 88076D   13283.19784670  .00242041  19836-5  81969-3 0  3078
2 19448 063.1956 322.4565 2251320 198.5387 192.8404 11.14225627342829
0 SL-6 R/B(2)
1 19448U 88076D   13283.50021132  .00245836  19852-5  83234-3 0  3081
2 19448 063.1956 321.8972 2250661 198.5477 325.7626 11.14367289342858
0 SL-6 R/B(2)
1 19448U 88076D   13283.83537080  .00244995  19872-5  82944-3 0  3096
2 19448 063.1957 321.2773 2249974 198.5597 230.4227 11.14513935342894
0 SL-6 R/B(2)
1 19448U 88076D   13284.20435587  .00231911  19901-5  78505-3 0  3104
2 19448 063.1956 320.5944 2249242 198.5723 270.9925 11.14671773342938
0 SL-6 R/B(2)
1 19448U 88076D   13285.47346850  .00223924  19982-5  75694-3 0  3131
2 19448 063.1952 318.2450 2246612 198.6126 325.0381 11.15242766343077
0 SL-6 R/B(2)
1 19448U 88076D   13285.80779367  .00225607  20001-5  76246-3 0  3140
2 19448 063.1950 317.6258 2245907 198.6235 227.4052 11.15394249343110
0 SL-6 R/B(2)
1 19448U 88076D   13286.18612203  .00222785  20025-5  75268-3 0  3151
2 19448 063.1946 316.9247 2245150 198.6363 306.6600 11.15558034343154
0 SL-6 R/B(2)
1 19448U 88076D   13286.45976164  .00221231  20042-5  74792-3 0  3166
2 19448 063.1945 316.4174 2244591 198.6459 325.6660 11.15672156343183
0 SL-6 R/B(2)
1 19448U 88076D   13286.79395028  .00222308  20060-5  75131-3 0  3172
2 19448 063.1943 315.7980 2243925 198.6568 228.0026 11.15816277343220
0 SL-6 R/B(2)
1 19448U 88076D   13287.17159966  .00215912  20085-5  72999-3 0  3184
2 19448 063.1938 315.0976 2243200 198.6700 305.1127 11.15968152343269
0 SL-6 R/B(2)
1 19448U 88076D   13287.53717645  .00225353  20102-5  76190-3 0  3196
2 19448 063.1934 314.4195 2242442 198.6823 333.9325 11.16128484343305
0 SL-6 R/B(2)
1 19448U 88076D   13287.79870440  .00236969  20111-5  80071-3 0  3207
2 19448 063.1932 313.9343 2241874 198.6897 304.8306 11.16252553343335
0 SL-6 R/B(2)
1 19448U 88076D   13288.15678159  .00248281  20128-5  83821-3 0  3216
2 19448 063.1928 313.2699 2241072 198.7023 303.8844 11.16428716343375
0 SL-6 R/B(2)
1 19448U 88076D   13288.51381166  .00252492  20151-5  85349-3 0  3228
2 19448 063.1925 312.6070 2240171 198.7152 298.9678 11.16610593343410
0 SL-6 R/B(2)
1 19448U 88076D   13288.78402903  .00242153  20177-5  81897-3 0  3236
2 19448 063.1922 312.1052 2239502 198.7237 305.2595 11.16749902343442
0 SL-6 R/B(2)
1 19448U 88076D   13289.14185304  .00240632  20200-5  81400-3 0  3248
2 19448 063.1916 311.4409 2238750 198.7366 303.9230 11.16908456343486
0 SL-6 R/B(2)
1 19448U 88076D   13289.50719747  .00237125  20225-5  80300-3 0  3251
2 19448 063.1912 310.7622 2237970 198.7517 333.0387 11.17066604343525
0 SL-6 R/B(2)
1 19448U 88076D   13289.84143977  .00243541  20241-5  82489-3 0  3262
2 19448 063.1911 310.1411 2237269 198.7624 237.2781 11.17213695343565
0 SL-6 R/B(2)
1 19448U 88076D   13290.19074648  .00231657  20270-5  78513-3 0  3271
2 19448 063.1908 309.4918 2236524 198.7759 202.2819 11.17368646343602
0 SL-6 R/B(2)
1 19448U 88076D   13290.48297642  .00235189  20286-5  79765-3 0  3286
2 19448 063.1908 308.9483 2235892 198.7877 297.8584 11.17497552343632
0 SL-6 R/B(2)
1 19448U 88076D   13290.75296537  .00236629  20301-5  80297-3 0  3299
2 19448 063.1907 308.4463 2235320 198.7970 304.0902 11.17615048343664
0 SL-6 R/B(2)
1 19448U 88076D   13291.20113153  .00230986  20333-5  78434-3 0  3309
2 19448 063.1906 307.6126 2234339 198.8136 307.4308 11.17819380343712
0 SL-6 R/B(2)
1 19448U 88076D   13291.47508889  .00233213  20348-5  79238-3 0  3318
2 19448 063.1905 307.1029 2233753 198.8244 329.9480 11.17939277343748
0 SL-6 R/B(2)
1 19448U 88076D   13292.18450594  .00222386  20396-5  75603-3 0  3321
2 19448 063.1905 305.7823 2232317 198.8482 305.4725 11.18241722343825
0 SL-6 R/B(2)
1 19448U 88076D   13292.54622508  .00227928  20415-5  77536-3 0  3334
2 19448 063.1905 305.1088 2231545 198.8612 321.7565 11.18400669343863
0 SL-6 R/B(2)
1 19448U 88076D   13292.79228946  .00224686  20430-5  76402-3 0  3346
2 19448 063.1906 304.6506 2231088 198.8679 232.5318 11.18501419343891
0 SL-6 R/B(2)
1 19448U 88076D   13293.16947701  .00223574  20453-5  76047-3 0  3351
2 19448 063.1906 303.9478 2230324 198.8825 311.4461 11.18661870343935
0 SL-6 R/B(2)
1 19448U 88076D   13293.52994765  .00230661  20471-5  78461-3 0  3361
2 19448 063.1907 303.2761 2229573 198.8953 323.2533 11.18820675343975
0 SL-6 R/B(2)
1 19448U 88076D   13293.77525494  .00228955  20484-5  77817-3 0  3379
2 19448 063.1908 302.8191 2229145 198.9028 231.3552 11.18918236344003
0 SL-6 R/B(2)
1 19448U 88076D   13294.15209690  .00229818  20506-5  78096-3 0  3384
2 19448 063.1909 302.1164 2228386 198.9165 309.4463 11.19081173344049
0 SL-6 R/B(2)
1 19448U 88076D   13294.51375409  .00232716  20525-5  79052-3 0  3392
2 19448 063.1911 301.4420 2227656 198.9294 326.5823 11.19239095344083
0 SL-6 R/B(2)
1 19448U 88076D   13294.85524456  .00237155  20542-5  80446-3 0  3409
2 19448 063.1913 300.8052 2227000 198.9387 262.6487 11.19389161344126
0 SL-6 R/B(2)
1 19448U 88076D   13295.20236833  .00231992  20566-5  78727-3 0  3417
2 19448 063.1914 300.1576 2226307 198.9517 221.6051 11.19534097344161
0 SL-6 R/B(2)
1 19448U 88076D   13295.49722536  .00239744  20580-5  81333-3 0  3425
2 19448 063.1913 299.6074 2225656 198.9607 330.0582 11.19674276344192
0 SL-6 R/B(2)
1 19448U 88076D   13296.20705635  .00232879  20627-5  78952-3 0  3434
2 19448 063.1911 298.2824 2224225 198.9836 311.6816 11.19984799344271
